TDRS 3                  
1 19548U 88091B   20152.45973622 -.00000307  00000-0  00000-0 0  9992
2 19548  14.1857 357.5747 0036139 326.3492  42.1147  1.00268877103275
FLTSATCOM 8 (USA 46)    
1 20253U 89077A   20152.13382789 -.00000086  00000-0  00000-0 0  9999
2 20253  13.0324   5.6515 0004641  59.0889 304.4318  1.00272803238507
SKYNET 4C               
1 20776U 90079A   20150.75444855  .00000122  00000-0  00000+0 0  9991
2 20776  13.9679   6.0719 0002226  49.9950 136.6748  1.00276102108788
TDRS 5                  
1 21639U 91054B   20152.23801704  .00000078  00000-0  00000-0 0  9990
2 21639  14.3072  10.8648 0029557  10.0335 146.5373  1.00264022105560
TDRS 6                  
1 22314U 93003B   20152.46003660 -.00000301  00000-0  00000-0 0  9997
2 22314  14.0344  13.9977 0009238  67.3532 287.7609  1.00267666100233
UFO 2 (USA 95)          
1 22787U 93056A   20152.27341022  .00000121  00000-0  00000-0 0  9994
2 22787  11.2789  15.4574 0004579  60.8772 300.1312  1.00278518 96453
USA 99 (MILSTAR-1 1)    
1 22988U 94009A   20152.12142310 -.00000297  00000-0  00000-0 0  9994
2 22988  14.1203  51.2603 0002022 346.6009 204.9944  1.00141695 10823
ASTRA 1D                
1 23331U 94070A   20152.29742860 -.00000272  00000-0  00000+0 0  9991
2 23331   9.0845  42.3070 0003616  29.7097 211.2687  1.00269304 94023
USA 107 (DSP 17)        
1 23435U 94084A   20151.27881309 -.00000169  00000-0  00000-0 0  9996
2 23435  14.5527  12.0863 0002673  60.7361 179.0818  1.00276422 10801
UFO 4 (USA 108)         
1 23467U 95003A   20152.44814295 -.00000029  00000-0  00000-0 0  9998
2 23467   9.8994  21.0229 0005969  54.6975 147.2449  1.00270018 92836
AMSC 1                  
1 23553U 95019A   20152.23452025 -.00000103  00000-0  00000-0 0  9990
2 23553  11.2481  31.3251 0010382  13.9223 181.8560  1.00273110 92023
TDRS 7                  
1 23613U 95035B   20151.64674285 -.00000205  00000-0  00000-0 0  9996
2 23613  14.2010   4.6947 0032374  30.9089 170.4733  1.00267915 91100
USA 113                 
1 23628U 95038A   20151.62996167 -.00000342  00000-0  00000+0 0  9990
2 23628  11.4218  30.1888 0002038  26.2808 162.7165  1.00269480  9464
USA 115 (MILSTAR-1 2)   
1 23712U 95060A   20152.10188156 -.00000206  00000-0  00000+0 0  9993
2 23712  13.2006  20.1001 0004421  49.0181 126.5951  1.00272707  9506
INMARSAT 3-F1           
1 23839U 96020A   20152.18684976 -.00000187  00000-0  00000-0 0  9998
2 23839   6.0423  62.4001 0007052  12.3276 224.0453  1.00002652 88170
ASTRA 1F                
1 23842U 96021A   20152.47952263  .00000136  00000-0  00000-0 0  9995
2 23842   0.0482  55.2937 0004724  15.3730  35.6772  1.00270450 30206
MSAT M1                 
1 23846U 96022A   20151.79281712 -.00000090  00000-0  00000-0 0  9998
2 23846   9.2617  41.6613 0007760  14.5651  10.4378  1.00272401 88278
INMARSAT 3-F2           
1 24307U 96053A   20152.39008628  .00000116  00000-0  00000+0 0  9992
2 24307   4.8713  72.0108 0009416 353.8440 183.1325  0.99988029 86872
AMC-1 (GE-1)            
1 24315U 96054A   20152.39501427  .00000064  00000-0  00000-0 0  9990
2 24315   3.8982  78.8511 0003335 341.1059 200.6959  1.00272255 24184
INMARSAT 3-F3           
1 24674U 96070A   20151.54388491  .00000032  00000-0  00000-0 0  9991
2 24674   5.5707  66.3367 0006288   3.1635 192.9464  1.00269790 85824
AMC-2 (GE-2)            
1 24713U 97002A   20152.12487346 -.00000216  00000-0  00000-0 0  9990
2 24713   6.3416  60.4727 0006658  13.0451 135.6714  1.00270714 85444
INTELSAT 26 (IS-26)     
1 24732U 97007A   20152.26021792  .00000001  00000-0  00000-0 0  9991
2 24732   9.0175  43.0911 0007455   4.1386 359.2812  1.00271910 50605
USA 130 (DSP 18)        
1 24737U 97008A   20151.95882850  .00000021  00000-0  00000+0 0  9993
2 24737  13.5621  19.9256 0000803 337.4537 244.3190  1.00270961  9466
GALAXY 25 (G-25)        
1 24812U 97026A   20152.47725449  .00000153  00000-0  00000-0 0  9992
2 24812   1.8853  90.5565 0002711 337.7297  25.8027  1.00273245 84249
INTELSAT 5 (IS-5)       
1 24916U 97046A   20152.45226747  .00000088  00000-0  00000-0 0  9991
2 24916   5.6773  65.6647 0004207  14.9267 194.6145  1.00271841 83485
AMC-3 (GE-3)            
1 24936U 97050A   20152.42671281 -.00000262  00000-0  00000-0 0  9997
2 24936   2.7649  85.8525 0003148 346.4904 258.6487  1.00270964 30296
NSS-5                   
1 24957U 97053A   20151.40399309  .00000103  00000-0  00000-0 0  9991
2 24957   5.9331  63.8770 0003813   0.1406  20.2811  1.00272711 83036
USA 134                 
1 25019U 97065A   20152.13449969 -.00000066  00000-0  00000-0 0  9992
2 25019  10.2006  36.1986 0006566 332.5948 176.8667  1.00274421 10810
ASTRA 1G                
1 25071U 97076A   20152.31368953  .00000016  00000-0  00000-0 0  9999
2 25071   4.5822  73.3198 0003985 354.0629 358.0420  1.00271848 82411
INMARSAT 3-F5           
1 25153U 98006B   20152.13405300 -.00000291  00000-0  00000+0 0  9997
2 25153   4.7778  70.3272 0005343   0.9967 172.0123  1.00268351 81751
UFO 8 (USA 138)         
1 25258U 98016A   20152.36140520 -.00000029  00000-0  00000-0 0  9999
2 25258   8.6513  32.8591 0004928  27.5459 130.6978  1.00267184 81710
ASTRA 2A                
1 25462U 98050A   20152.48641427 -.00000076  00000-0  00000-0 0  9991
2 25462   1.5864  93.3314 0002389 310.0144  99.9310  1.00049309 24231
JCSAT-4A                
1 25630U 99006A   20151.73467081 -.00000311  00000-0  00000-0 0  9991
2 25630   4.5644  74.1256 0002431  97.0921 117.9599  1.00268826 77855
SKYNET 4E               
1 25639U 99009B   20151.89063476 -.00000037  00000-0  00000+0 0  9994
2 25639  10.8669  21.1656 0002622  57.4819 129.6093  1.00274333 77876
ASIASAT 3S              
1 25657U 99013A   20152.62177602 -.00000228  00000-0  00000-0 0  9991
2 25657   4.7565  72.5694 0004500 347.8898 200.4621  1.00271097 77683
NIMIQ 1                 
1 25740U 99027A   20152.29798622 -.00000200  00000-0  00000-0 0  9993
2 25740   1.0564  94.3165 0005518 338.3645 197.3005  1.00272927 76913
ABS-7                   
1 25894U 99046A   20152.36403587 -.00000364  00000-0  00000-0 0  9996
2 25894   0.9346  95.0386 0004139 348.4489  52.9952  1.00268744 74993
ABS-6                   
1 25924U 99053A   20151.85633894 -.00000122  00000-0  00000-0 0  9999
2 25924   0.0317  47.5083 0002856  48.8671 259.7331  1.00270847 75727
TELSTAR 12 (ORION 2)    
1 25949U 99059A   20152.46664521 -.00000065  00000-0  00000-0 0  9997
2 25949   3.2744  83.9663 0006848 333.7833 250.4602  1.00271175 75399
AMC-4 (GE-4)            
1 25954U 99060A   20152.48703934  .00000085  00000-0  00000-0 0  9990
2 25954   0.0201 296.8050 0002734 125.6943 227.3794  1.00270510 21458
UFO 10 (USA 146)        
1 25967U 99063A   20152.03543431 -.00000187  00000-0  00000+0 0  9995
2 25967   7.8467  35.7062 0006608  40.4956 163.0674  1.00273121 75190
GALAXY 11 (G-11)        
1 26038U 99071A   20152.52392571 -.00000164  00000-0  00000-0 0  9991
2 26038   1.1674  96.5744 0000149 202.6595  45.7481  1.00270710 74949
USA 148                 
1 26052U 00001A   20152.29978799  .00000038  00000-0  00000-0 0  9997
2 26052   8.3873  46.7306 0003664  14.2015 116.6020  1.00274396 10823
ASIASTAR                
1 26107U 00016A   20151.92433605 -.00000335  00000-0  00000+0 0  9995
2 26107   3.9762  77.2626 0005215 353.8260 255.5519  1.00272849 74012
USA 149 (DSP 20)        
1 26356U 00024A   20152.29423355  .00000093  00000-0  00000-0 0  9993
2 26356  11.5297  26.5634 0002843 355.9509 167.4892  1.00259353 10778
EUTELSAT 80A            
1 26369U 00028A   20152.39840991  .00000118  00000-0  00000-0 0  9999
2 26369   3.3543  81.2184 0005721   2.2775 357.5558  1.00276226 73349
TDRS 8                  
1 26388U 00034A   20151.70744035 -.00000236  00000-0  00000-0 0  9995
2 26388   9.2054  47.6722 0018256 325.5419 219.4499  1.00270741 73031
INTELSAT 9 (IS-9)       
1 26451U 00043A   20151.33116330 -.00000288  00000-0  00000-0 0  9993
2 26451   5.6633  65.8749 0002939 358.0237 253.6344  1.00271245 21993
BRASILSAT B4            
1 26469U 00046A   20152.41861280 -.00000173  00000-0  00000-0 0  9999
2 26469   3.9539  78.6461 0003498 350.6576 238.7805  1.00271628 72498
ASTRA 2B                
1 26494U 00054A   20151.82851066  .00000116  00000-0  00000-0 0  9997
2 26494   4.4800  73.9471 0005302 351.1619 141.5432  1.00268883 24743
NSS-11 (AAP-1)          
1 26554U 00059A   20152.50578062  .00000022  00000-0  00000-0 0  9993
2 26554   0.0477  89.3107 0002147 347.3808 170.8302  1.00272171 19166
USA 153                 
1 26575U 00065A   20151.56785640 -.00000326  00000-0  00000-0 0  9998
2 26575   7.8683  49.9989 0001844 358.3582 178.9492  1.00275106 10786
AMC-6 (GE-6)            
1 26580U 00067A   20152.21594610 -.00000218  00000-0  00000-0 0  9994
2 26580   0.0245 309.0190 0002592 130.3171 164.5813  1.00270664 71822
INTELSAT 12 (IS-12)     
1 26590U 00068A   20152.48344824  .00000010  00000-0  00000-0 0  9994
2 26590   2.8933  86.3589 0007173   6.9476  34.4370  1.00273332 29584
INTELSAT 1R (IS-1R)     
1 26608U 00072A   20151.85599000 -.00000140  00000-0  00000-0 0  9992
2 26608   2.6994  86.5424 0000632 226.1099  41.4128  1.00271370 19172
ANIK F1                 
1 26624U 00076A   20152.40800149 -.00000077  00000-0  00000+0 0  9993
2 26624   0.0509 120.8114 0002353  25.7121 142.4340  1.00271577 71583
ASTRA 2D                
1 26638U 00081A   20151.30396597  .00000062  00000-0  00000-0 0  9993
2 26638   5.7573  64.8014 0001532 357.7326 352.3660  1.00271715 30755
AMC-8 (GE-8)            
1 26639U 00081B   20152.30269977  .00000102  00000-0  00000-0 0  9991
2 26639   0.6212  95.7939 0000596 269.7149 213.7145  1.00271665 71198
USA 157 (MILSTAR-2 2)   
1 26715U 01009A   20152.54702094 -.00000313  00000-0  00000-0 0  9990
2 26715   9.3156  30.6312 0002635  26.2501 167.3389  1.00272690 10818
